[{"OBJECT_NAME":"STARLINK-35882","OBJECT_ID":"2025-298P","EPOCH":"2026-03-09T23:03:56.894688","MEAN_MOTION":14.98333879,"ECCENTRICITY":0.00031237,"INCLINATION":70.0009,"RA_OF_ASC_NODE":13.9447,"ARG_OF_PERICENTER":267.6345,"MEAN_ANOMALY":92.4456,"EPHEMERIS_TYPE":0,"CLASSIFICATION_TYPE":"U","NORAD_CAT_ID":67088,"ELEMENT_SET_NO":999,"REV_AT_EPOCH":1325,"BSTAR":0.00038624449,"MEAN_MOTION_DOT":4.519e-5,"MEAN_MOTION_DDOT":0},{"OBJECT_NAME":"PEGASUS DEB","OBJECT_ID":"1994-029AFS","EPOCH":"2026-03-05T01:55:28.354656","MEAN_MOTION":14.43480467,"ECCENTRICITY":0.0257103,"INCLINATION":81.851,"RA_OF_ASC_NODE":190.8287,"ARG_OF_PERICENTER":229.4197,"MEAN_ANOMALY":128.4368,"EPHEMERIS_TYPE":0,"CLASSIFICATION_TYPE":"U","NORAD_CAT_ID":39919,"ELEMENT_SET_NO":999,"REV_AT_EPOCH":61478,"BSTAR":0.0012112531,"MEAN_MOTION_DOT":6.148e-5,"MEAN_MOTION_DDOT":0}]
